[{"OBJECT_NAME":"COSMOS 2580","OBJECT_ID":"2024-230A","EPOCH":"2026-03-09T20:11:18.024576","MEAN_MOTION":13.96672575,"ECCENTRICITY":0.0006756,"INCLINATION":67.1461,"RA_OF_ASC_NODE":292.3144,"ARG_OF_PERICENTER":270.0052,"MEAN_ANOMALY":90.0258,"EPHEMERIS_TYPE":0,"CLASSIFICATION_TYPE":"U","NORAD_CAT_ID":62216,"ELEMENT_SET_NO":999,"REV_AT_EPOCH":6426,"BSTAR":3.1709e-5,"MEAN_MOTION_DOT":-3.1e-7,"MEAN_MOTION_DDOT":0},{"OBJECT_NAME":"THOR ABLESTAR DEB","OBJECT_ID":"1961-015DD","EPOCH":"2026-03-09T21:35:20.145408","MEAN_MOTION":13.90830349,"ECCENTRICITY":0.01142289,"INCLINATION":66.541,"RA_OF_ASC_NODE":272.9081,"ARG_OF_PERICENTER":201.0852,"MEAN_ANOMALY":158.5497,"EPHEMERIS_TYPE":0,"CLASSIFICATION_TYPE":"U","NORAD_CAT_ID":327,"ELEMENT_SET_NO":999,"REV_AT_EPOCH":27293,"BSTAR":0.00018756239,"MEAN_MOTION_DOT":1.69e-6,"MEAN_MOTION_DDOT":0}]
